[{"OBJECT_NAME":"ONEWEB-0568","OBJECT_ID":"2023-043S","EPOCH":"2025-11-29T19:44:59.083584","MEAN_MOTION":13.1659401,"ECCENTRICITY":0.0001508,"INCLINATION":87.9038,"RA_OF_ASC_NODE":268.4683,"ARG_OF_PERICENTER":74.022,"MEAN_ANOMALY":286.1077,"EPHEMERIS_TYPE":0,"CLASSIFICATION_TYPE":"U","NORAD_CAT_ID":56062,"ELEMENT_SET_NO":999,"REV_AT_EPOCH":13274,"BSTAR":0.00032268,"MEAN_MOTION_DOT":1.36e-6,"MEAN_MOTION_DDOT":0},{"OBJECT_NAME":"ONEWEB-0574","OBJECT_ID":"2023-043T","EPOCH":"2025-11-29T19:23:12.738912","MEAN_MOTION":13.21823621,"ECCENTRICITY":0.0001816,"INCLINATION":87.9201,"RA_OF_ASC_NODE":283.7319,"ARG_OF_PERICENTER":85.5081,"MEAN_ANOMALY":274.6261,"EPHEMERIS_TYPE":0,"CLASSIFICATION_TYPE":"U","NORAD_CAT_ID":56063,"ELEMENT_SET_NO":999,"REV_AT_EPOCH":13193,"BSTAR":0.00017551,"MEAN_MOTION_DOT":8.6e-7,"MEAN_MOTION_DDOT":0},{"OBJECT_NAME":"ONEWEB-0575","OBJECT_ID":"2023-043U","EPOCH":"2025-11-29T19:35:52.232928","MEAN_MOTION":13.1659417,"ECCENTRICITY":0.0001556,"INCLINATION":87.9036,"RA_OF_ASC_NODE":268.4698,"ARG_OF_PERICENTER":85.6512,"MEAN_ANOMALY":274.4797,"EPHEMERIS_TYPE":0,"CLASSIFICATION_TYPE":"U","NORAD_CAT_ID":56064,"ELEMENT_SET_NO":999,"REV_AT_EPOCH":13273,"BSTAR":0.00019799,"MEAN_MOTION_DOT":8.9e-7,"MEAN_MOTION_DDOT":0},{"OBJECT_NAME":"ONEWEB-0576","OBJECT_ID":"2023-043V","EPOCH":"2025-11-29T19:08:29.120928","MEAN_MOTION":13.16587367,"ECCENTRICITY":0.0001661,"INCLINATION":87.9037,"RA_OF_ASC_NODE":268.4738,"ARG_OF_PERICENTER":83.0295,"MEAN_ANOMALY":277.1025,"EPHEMERIS_TYPE":0,"CLASSIFICATION_TYPE":"U","NORAD_CAT_ID":56065,"ELEMENT_SET_NO":999,"REV_AT_EPOCH":13272,"BSTAR":0.00013266,"MEAN_MOTION_DOT":6.4e-7,"MEAN_MOTION_DDOT":0},{"OBJECT_NAME":"ONEWEB-0577","OBJECT_ID":"2023-043W","EPOCH":"2025-11-29T13:49:18.560928","MEAN_MOTION":13.1659359,"ECCENTRICITY":0.0001735,"INCLINATION":87.9034,"RA_OF_ASC_NODE":268.5175,"ARG_OF_PERICENTER":103.9713,"MEAN_ANOMALY":256.1611,"EPHEMERIS_TYPE":0,"CLASSIFICATION_TYPE":"U","NORAD_CAT_ID":56066,"ELEMENT_SET_NO":999,"REV_AT_EPOCH":13272,"BSTAR":0.00030358,"MEAN_MOTION_DOT":1.29e-6,"MEAN_MOTION_DDOT":0},{"OBJECT_NAME":"ONEWEB-0578","OBJECT_ID":"2023-043X","EPOCH":"2025-11-29T13:37:15.470688","MEAN_MOTION":13.21826786,"ECCENTRICITY":0.0001619,"INCLINATION":87.9204,"RA_OF_ASC_NODE":283.7899,"ARG_OF_PERICENTER":77.1519,"MEAN_ANOMALY":282.9796,"EPHEMERIS_TYPE":0,"CLASSIFICATION_TYPE":"U","NORAD_CAT_ID":56067,"ELEMENT_SET_NO":999,"REV_AT_EPOCH":13186,"BSTAR":0.00012972,"MEAN_MOTION_DOT":6.7e-7,"MEAN_MOTION_DDOT":0},{"OBJECT_NAME":"ONEWEB-0579","OBJECT_ID":"2023-043Y","EPOCH":"2025-11-29T13:23:01.289184","MEAN_MOTION":13.21828914,"ECCENTRICITY":0.0002137,"INCLINATION":87.9207,"RA_OF_ASC_NODE":283.7791,"ARG_OF_PERICENTER":80.1165,"MEAN_ANOMALY":280.021,"EPHEMERIS_TYPE":0,"CLASSIFICATION_TYPE":"U","NORAD_CAT_ID":56068,"ELEMENT_SET_NO":999,"REV_AT_EPOCH":13187,"BSTAR":7.4675e-6,"MEAN_MOTION_DOT":1.6e-7,"MEAN_MOTION_DDOT":0},{"OBJECT_NAME":"ONEWEB-0581","OBJECT_ID":"2023-043Z","EPOCH":"2025-11-29T19:26:44.939040","MEAN_MOTION":13.16594015,"ECCENTRICITY":0.0001849,"INCLINATION":87.9034,"RA_OF_ASC_NODE":268.4848,"ARG_OF_PERICENTER":91.7563,"MEAN_ANOMALY":268.378,"EPHEMERIS_TYPE":0,"CLASSIFICATION_TYPE":"U","NORAD_CAT_ID":56069,"ELEMENT_SET_NO":999,"REV_AT_EPOCH":13272,"BSTAR":0.00037608,"MEAN_MOTION_DOT":1.57e-6,"MEAN_MOTION_DDOT":0},{"OBJECT_NAME":"ONEWEB-0609","OBJECT_ID":"2023-043AA","EPOCH":"2025-11-29T20:06:00.792288","MEAN_MOTION":13.15548034,"ECCENTRICITY":0.0001882,"INCLINATION":87.8983,"RA_OF_ASC_NODE":298.9963,"ARG_OF_PERICENTER":79.6751,"MEAN_ANOMALY":280.4592,"EPHEMERIS_TYPE":0,"CLASSIFICATION_TYPE":"U","NORAD_CAT_ID":56070,"ELEMENT_SET_NO":999,"REV_AT_EPOCH":13022,"BSTAR":0.00010274,"MEAN_MOTION_DOT":5.2e-7,"MEAN_MOTION_DDOT":0},{"OBJECT_NAME":"ONEWEB-0613","OBJECT_ID":"2023-043AB","EPOCH":"2025-11-29T19:59:10.281696","MEAN_MOTION":13.15549062,"ECCENTRICITY":0.0002142,"INCLINATION":87.898,"RA_OF_ASC_NODE":299.0093,"ARG_OF_PERICENTER":77.734,"MEAN_ANOMALY":282.403,"EPHEMERIS_TYPE":0,"CLASSIFICATION_TYPE":"U","NORAD_CAT_ID":56071,"ELEMENT_SET_NO":999,"REV_AT_EPOCH":13022,"BSTAR":0.00036239,"MEAN_MOTION_DOT":1.49e-6,"MEAN_MOTION_DDOT":0},{"OBJECT_NAME":"ONEWEB-0630","OBJECT_ID":"2023-043AC","EPOCH":"2025-11-29T19:52:19.202592","MEAN_MOTION":13.15548831,"ECCENTRICITY":0.0002168,"INCLINATION":87.8978,"RA_OF_ASC_NODE":298.9824,"ARG_OF_PERICENTER":80.7881,"MEAN_ANOMALY":279.3494,"EPHEMERIS_TYPE":0,"CLASSIFICATION_TYPE":"U","NORAD_CAT_ID":56072,"ELEMENT_SET_NO":999,"REV_AT_EPOCH":13021,"BSTAR":0.0003749,"MEAN_MOTION_DOT":1.54e-6,"MEAN_MOTION_DDOT":0},{"OBJECT_NAME":"ONEWEB-0632","OBJECT_ID":"2023-043AD","EPOCH":"2025-11-29T19:45:27.955872","MEAN_MOTION":13.15548503,"ECCENTRICITY":0.0001931,"INCLINATION":87.8974,"RA_OF_ASC_NODE":299.0015,"ARG_OF_PERICENTER":88.5026,"MEAN_ANOMALY":271.6325,"EPHEMERIS_TYPE":0,"CLASSIFICATION_TYPE":"U","NORAD_CAT_ID":56073,"ELEMENT_SET_NO":999,"REV_AT_EPOCH":13021,"BSTAR":0.00029682,"MEAN_MOTION_DOT":1.25e-6,"MEAN_MOTION_DDOT":0},{"OBJECT_NAME":"ONEWEB-0633","OBJECT_ID":"2023-043AE","EPOCH":"2025-11-29T19:36:20.776032","MEAN_MOTION":13.15547846,"ECCENTRICITY":0.000216,"INCLINATION":87.8972,"RA_OF_ASC_NODE":298.9659,"ARG_OF_PERICENTER":75.1943,"MEAN_ANOMALY":284.9426,"EPHEMERIS_TYPE":0,"CLASSIFICATION_TYPE":"U","NORAD_CAT_ID":56074,"ELEMENT_SET_NO":999,"REV_AT_EPOCH":13019,"BSTAR":0.00027113,"MEAN_MOTION_DOT":1.15e-6,"MEAN_MOTION_DDOT":0},{"OBJECT_NAME":"ONEWEB-0634","OBJECT_ID":"2023-043AF","EPOCH":"2025-11-29T15:36:45.983808","MEAN_MOTION":13.15548885,"ECCENTRICITY":0.0001675,"INCLINATION":87.8984,"RA_OF_ASC_NODE":299.048,"ARG_OF_PERICENTER":72.9427,"MEAN_ANOMALY":287.1887,"EPHEMERIS_TYPE":0,"CLASSIFICATION_TYPE":"U","NORAD_CAT_ID":56075,"ELEMENT_SET_NO":999,"REV_AT_EPOCH":13016,"BSTAR":0.00018336,"MEAN_MOTION_DOT":8.2e-7,"MEAN_MOTION_DDOT":0},{"OBJECT_NAME":"ONEWEB-0635","OBJECT_ID":"2023-043AG","EPOCH":"2025-11-29T15:29:54.692160","MEAN_MOTION":13.15549645,"ECCENTRICITY":0.000187,"INCLINATION":87.8977,"RA_OF_ASC_NODE":299.0035,"ARG_OF_PERICENTER":91.3419,"MEAN_ANOMALY":268.7925,"EPHEMERIS_TYPE":0,"CLASSIFICATION_TYPE":"U","NORAD_CAT_ID":56076,"ELEMENT_SET_NO":999,"REV_AT_EPOCH":13019,"BSTAR":9.0361e-5,"MEAN_MOTION_DOT":4.7e-7,"MEAN_MOTION_DDOT":0},{"OBJECT_NAME":"ONEWEB-0636","OBJECT_ID":"2023-043AH","EPOCH":"2025-11-29T04:21:22.294656","MEAN_MOTION":13.15549441,"ECCENTRICITY":0.00018559,"INCLINATION":87.8972,"RA_OF_ASC_NODE":299.114,"ARG_OF_PERICENTER":89.9302,"MEAN_ANOMALY":270.2041,"EPHEMERIS_TYPE":0,"CLASSIFICATION_TYPE":"U","NORAD_CAT_ID":56077,"ELEMENT_SET_NO":999,"REV_AT_EPOCH":13011,"BSTAR":-0.00020276161,"MEAN_MOTION_DOT":-6.4e-7,"MEAN_MOTION_DDOT":0},{"OBJECT_NAME":"ONEWEB-0637","OBJECT_ID":"2023-043AJ","EPOCH":"2025-11-29T15:09:23.417856","MEAN_MOTION":13.15549258,"ECCENTRICITY":0.0001559,"INCLINATION":87.8979,"RA_OF_ASC_NODE":299.04,"ARG_OF_PERICENTER":84.5834,"MEAN_ANOMALY":275.5474,"EPHEMERIS_TYPE":0,"CLASSIFICATION_TYPE":"U","NORAD_CAT_ID":56078,"ELEMENT_SET_NO":999,"REV_AT_EPOCH":13019,"BSTAR":-0.00024612,"MEAN_MOTION_DOT":-8.0e-7,"MEAN_MOTION_DDOT":0}]
