ONEWEB-0568             
1 56062U 23043S   25333.82290606  .00000136  00000+0  32268-3 0  9993
2 56062  87.9038 268.4683 0001508  74.0220 286.1077 13.16594010132740
ONEWEB-0574             
1 56063U 23043T   25333.80778633  .00000086  00000+0  17551-3 0  9995
2 56063  87.9201 283.7319 0001816  85.5081 274.6261 13.21823621131939
ONEWEB-0575             
1 56064U 23043U   25333.81657677  .00000089  00000+0  19799-3 0  9990
2 56064  87.9036 268.4698 0001556  85.6512 274.4797 13.16594170132736
ONEWEB-0576             
1 56065U 23043V   25333.79755927  .00000064  00000+0  13266-3 0  9991
2 56065  87.9037 268.4738 0001661  83.0295 277.1025 13.16587367132723
ONEWEB-0577             
1 56066U 23043W   25333.57590927  .00000129  00000+0  30358-3 0  9998
2 56066  87.9034 268.5175 0001735 103.9713 256.1611 13.16593590132729
ONEWEB-0578             
1 56067U 23043X   25333.56754017  .00000067  00000+0  12972-3 0  9993
2 56067  87.9204 283.7899 0001619  77.1519 282.9796 13.21826786131865
ONEWEB-0579             
1 56068U 23043Y   25333.55765381  .00000016  00000+0  74675-5 0  9993
2 56068  87.9207 283.7791 0002137  80.1165 280.0210 13.21828914131873
ONEWEB-0581             
1 56069U 23043Z   25333.81024235  .00000157  00000+0  37608-3 0  9998
2 56069  87.9034 268.4848 0001849  91.7563 268.3780 13.16594015132726
ONEWEB-0609             
1 56070U 23043AA  25333.83750917  .00000052  00000+0  10274-3 0  9999
2 56070  87.8983 298.9963 0001882  79.6751 280.4592 13.15548034130225
ONEWEB-0613             
1 56071U 23043AB  25333.83275789  .00000149  00000+0  36239-3 0  9995
2 56071  87.8980 299.0093 0002142  77.7340 282.4030 13.15549062130223
ONEWEB-0630             
1 56072U 23043AC  25333.82800003  .00000154  00000+0  37490-3 0  9994
2 56072  87.8978 298.9824 0002168  80.7881 279.3494 13.15548831130214
ONEWEB-0632             
1 56073U 23043AD  25333.82324023  .00000125  00000+0  29682-3 0  9990
2 56073  87.8974 299.0015 0001931  88.5026 271.6325 13.15548503130213
ONEWEB-0633             
1 56074U 23043AE  25333.81690713  .00000115  00000+0  27113-3 0  9998
2 56074  87.8972 298.9659 0002160  75.1943 284.9426 13.15547846130194
ONEWEB-0634             
1 56075U 23043AF  25333.65053222  .00000082  00000+0  18336-3 0  9999
2 56075  87.8984 299.0480 0001675  72.9427 287.1887 13.15548885130161
ONEWEB-0635             
1 56076U 23043AG  25333.64577190  .00000047  00000+0  90361-4 0  9994
2 56076  87.8977 299.0035 0001870  91.3419 268.7925 13.15549645130199
ONEWEB-0636             
1 56077U 23043AH  25333.18150804 -.00000064  00000+0 -20276-3 0  9991
2 56077  87.8972 299.1140 0001855  89.9302 270.2041 13.15549441130113
ONEWEB-0637             
1 56078U 23043AJ  25333.63152104 -.00000080  00000+0 -24612-3 0  9993
2 56078  87.8979 299.0400 0001559  84.5834 275.5474 13.15549258130193
